ONEWEB-0176             
1 48210U 21031A   24335.60291322 -.00000179  00000+0 -51693-3 0  9999
2 48210  87.9028  41.7705 0001759  99.6192 260.5137 13.14501641175567
ONEWEB-0184             
1 48211U 21031B   24335.42372625  .00000167  00000+0  41689-3 0  9995
2 48211  87.9028  41.7842 0001004  75.2317 284.8924 13.14504520174226
ONEWEB-0179             
1 48212U 21031C   24335.46971277  .00000032  00000+0  51266-4 0  9992
2 48212  87.9019  41.7829 0001497 100.7578 259.3721 13.14501870174273
ONEWEB-0180             
1 48213U 21031D   24335.42687977 -.00002201  00000+0 -59723-2 0  9996
2 48213  87.9026  41.7866 0001004 102.5615 257.5627 13.14516127174152
ONEWEB-0218             
1 48214U 21031E   24334.45956075 -.00000142  00000+0 -41720-3 0  9998
2 48214  87.9024  41.9798 0000796  82.5962 277.5258 13.14502479174186
ONEWEB-0209             
1 48215U 21031F   24335.43799810 -.00000063  00000+0 -20451-3 0  9990
2 48215  87.9025  41.8227 0001796 107.8271 252.3055 13.14502799174315
ONEWEB-0198             
1 48216U 21031G   24335.42212777  .00000226  00000+0  57625-3 0  9994
2 48216  87.9029  41.8298 0001377 106.4750 253.6531 13.14500962174425
ONEWEB-0189             
1 48217U 21031H   24335.43481219  .00000071  00000+0  15585-3 0  9992
2 48217  87.9027  41.8021 0001347 109.0939 251.0336 13.14501170174161
